[{"OBJECT_NAME":"OBJECT K","OBJECT_ID":"2024-092K","EPOCH":"2026-03-09T22:27:09.905184","MEAN_MOTION":15.32834875,"ECCENTRICITY":0.00087198,"INCLINATION":97.6413,"RA_OF_ASC_NODE":198.1023,"ARG_OF_PERICENTER":142.4952,"MEAN_ANOMALY":217.69,"EPHEMERIS_TYPE":0,"CLASSIFICATION_TYPE":"U","NORAD_CAT_ID":59809,"ELEMENT_SET_NO":999,"REV_AT_EPOCH":10001,"BSTAR":0.0007267688,"MEAN_MOTION_DOT":0.00023035,"MEAN_MOTION_DDOT":0},{"OBJECT_NAME":"STARLINK-35520","OBJECT_ID":"2025-237V","EPOCH":"2026-03-09T05:46:47.394912","MEAN_MOTION":15.30186255,"ECCENTRICITY":0.00016271,"INCLINATION":53.1616,"RA_OF_ASC_NODE":41.5824,"ARG_OF_PERICENTER":67.2085,"MEAN_ANOMALY":292.9088,"EPHEMERIS_TYPE":0,"CLASSIFICATION_TYPE":"U","NORAD_CAT_ID":66133,"ELEMENT_SET_NO":999,"REV_AT_EPOCH":2254,"BSTAR":0.00049775902,"MEAN_MOTION_DOT":0.00014405,"MEAN_MOTION_DDOT":0}]
